NORAD_CAT_ID,OBJECT_NAME,OBJECT_TYPE,EPOCH,MEAN_MOTION,ECCENTRICITY,INCLINATION,RA_OF_ASC_NODE,ARG_OF_PERICENTER,MEAN_ANOMALY,BSTAR,MEAN_MOTION_DOT,MEAN_MOTION_DDOT,TLE_LINE0,TLE_LINE1,TLE_LINE2,SEMIMAJOR_AXIS,PERIOD,APOGEE,PERIGEE,DECAYED
56476.0,STARLINK-5545,PAYLOAD,2023-11-15 13:11:20,14.98335379,0.0002934,69.9993,95.4273,270.5987,89.4835,-1.8548e-05,-3.14e-06,0.0,0 STARLINK-5545,1 56476U 23064AE  23319.54954258 -.00000314  00000-0 -18548-4 0  9993,2 56476  69.9993  95.4273 0002934 270.5987  89.4835 14.98335379 29146,6950.176,96.107,574.08,570.002,0.0
56476.0,STARLINK-5545,PAYLOAD,2023-11-16 10:01:05,14.98327945,0.0003049,69.9993,93.2393,268.1227,91.9583,3.3717e-05,3.09e-06,0.0,0 STARLINK-5545,1 56476U 23064AE  23320.41742450  .00000309  00000-0  33717-4 0  9997,2 56476  69.9993  93.2393 0003049 268.1227  91.9583 14.98327945 29275,6950.199,96.107,574.183,569.945,0.0
56476.0,STARLINK-5545,PAYLOAD,2023-11-17 11:39:14,14.98327953,0.000315,69.9993,90.5455,270.7055,89.3743,-3.3373e-05,-4.91e-06,0.0,0 STARLINK-5545,1 56476U 23064AE  23321.48558725 -.00000491  00000-0 -33373-4 0  9997,2 56476  69.9993  90.5455 0003150 270.7055  89.3743 14.98327953 29790,6950.199,96.107,574.254,569.875,0.0
56476.0,STARLINK-5545,PAYLOAD,2023-11-17 13:15:22,14.9832807,0.0003136,69.999,90.3767,271.3247,88.7553,-3.4507e-05,-5.05e-06,0.0,0 STARLINK-5545,1 56476U 23064AE  23321.55234728 -.00000505  00000-0 -34507-4 0  9995,2 56476  69.9990  90.3767 0003136 271.3247  88.7553 14.98328070 29440,6950.199,96.107,574.243,569.884,0.0
56476.0,STARLINK-5545,PAYLOAD,2023-11-17 19:39:54,14.98330985,0.0003054,69.9992,89.7038,270.6015,89.4794,-2.4976e-06,-1.23e-06,0.0,0 STARLINK-5545,1 56476U 23064AE  23321.81938453 -.00000123  00000-0 -24976-5 0  9996,2 56476  69.9992  89.7038 0003054 270.6015  89.4794 14.98330985 29486,6950.19,96.107,574.177,569.932,0.0
56476.0,STARLINK-5545,PAYLOAD,2023-11-18 11:41:15,14.98326125,0.0003019,69.9988,88.0203,270.85,89.2313,3.8258e-06,-4.7e-07,0.0,0 STARLINK-5545,1 56476U 23064AE  23322.48698782 -.00000047  00000-0  38258-5 0  9990,2 56476  69.9988  88.0203 0003019 270.8500  89.2313 14.98326125 29946,6950.205,96.107,574.168,569.972,0.0
56476.0,STARLINK-5545,PAYLOAD,2023-11-18 14:53:31,14.98327019,0.0002988,69.9991,87.6845,268.7312,91.3504,1.6533e-05,1.04e-06,0.0,0 STARLINK-5545,1 56476U 23064AE  23322.62050707  .00000104  00000-0  16533-4 0  9999,2 56476  69.9991  87.6845 0002988 268.7312  91.3504 14.98327019 29600,6950.202,96.107,574.144,569.99,0.0
56476.0,STARLINK-5545,PAYLOAD,2023-11-18 18:05:48,14.98326262,0.0003011,69.999,87.3479,268.6475,91.4339,4.7359e-06,-3.7e-07,0.0,0 STARLINK-5545,1 56476U 23064AE  23322.75402808 -.00000037  00000-0  47359-5 0  9993,2 56476  69.9990  87.3479 0003011 268.6475  91.4339 14.98326262 29624,6950.204,96.107,574.162,569.977,0.0
56476.0,STARLINK-5545,PAYLOAD,2023-11-19 11:43:16,14.98331386,0.000305,69.9992,85.4962,268.6094,91.4716,4.5342e-05,4.48e-06,0.0,0 STARLINK-5545,1 56476U 23064AE  23323.48838368  .00000448  00000-0  45342-4 0  9992,2 56476  69.9992  85.4962 0003050 268.6094  91.4716 14.98331386 30097,6950.189,96.107,574.173,569.934,0.0
56476.0,STARLINK-5545,PAYLOAD,2023-11-19 13:19:24,14.98331578,0.0003047,69.9993,85.328,268.5921,91.4889,4.5526e-05,4.5e-06,0.0,0 STARLINK-5545,1 56476U 23064AE  23323.55514350  .00000450  00000-0  45526-4 0  9999,2 56476  69.9993  85.3280 0003047 268.5921  91.4889 14.98331578 29748,6950.188,96.107,574.171,569.935,0.0
56476.0,STARLINK-5545,PAYLOAD,2023-11-19 18:07:48,14.98334345,0.0003052,69.9995,84.8235,268.881,91.1999,4.5631e-05,4.52e-06,0.0,0 STARLINK-5545,1 56476U 23064AE  23323.75542137  .00000452  00000-0  45631-4 0  9994,2 56476  69.9995  84.8235 0003052 268.8810  91.1999 14.98334345 29777,6950.179,96.107,574.166,569.923,0.0
56476.0,STARLINK-5545,PAYLOAD,2023-11-20 14:57:33,14.98332565,0.0003147,69.9994,82.6348,269.7196,90.3603,2.9436e-05,2.58e-06,0.0,0 STARLINK-5545,1 56476U 23064AE  23324.62330190  .00000258  00000-0  29436-4 0  9994,2 56476  69.9994  82.6348 0003147 269.7196  90.3603 14.98332565 29909,6950.185,96.107,574.237,569.863,0.0
56476.0,STARLINK-5545,PAYLOAD,2023-11-20 18:09:49,14.98334687,0.0003127,69.9995,82.298,269.6602,90.4199,5.2117e-05,5.29e-06,0.0,0 STARLINK-5545,1 56476U 23064AE  23324.75681961  .00000529  00000-0  52117-4 0  9996,2 56476  69.9995  82.2980 0003127 269.6602  90.4199 14.98334687 30288,6950.178,96.107,574.217,569.87,0.0
56476.0,STARLINK-5545,PAYLOAD,2023-11-21 13:23:26,14.98333922,0.0003083,69.9999,80.2782,270.0567,90.0239,-1.5716e-05,-2.81e-06,0.0,0 STARLINK-5545,1 56476U 23064AE  23325.55794027 -.00000281  00000-0 -15716-4 0  9994,2 56476  69.9999  80.2782 0003083 270.0567  90.0239 14.98333922 30043,6950.181,96.107,574.189,569.903,0.0
56476.0,STARLINK-5545,PAYLOAD,2023-11-21 18:11:49,14.98338914,0.0003049,70.0,79.7732,270.3218,89.7591,3.9863e-05,3.83e-06,0.0,0 STARLINK-5545,1 56476U 23064AE  23325.75821461  .00000383  00000-0  39863-4 0  9999,2 56476  70.0000  79.7732 0003049 270.3218  89.7591 14.98338914 30070,6950.165,96.106,574.149,569.911,0.0
56476.0,STARLINK-5545,PAYLOAD,2023-11-22 11:49:19,14.98311189,0.0002849,70.0009,77.9226,268.6587,91.4245,0.00037453,4.376e-05,0.0,0 STARLINK-5545,1 56476U 23064AE  23326.49258274  .00004376  00000-0  37453-3 0  9995,2 56476  70.0009  77.9226 0002849 268.6587  91.4245 14.98311189 30546,6950.251,96.108,574.096,570.136,0.0
56476.0,STARLINK-5545,PAYLOAD,2023-11-22 13:25:27,14.98312943,0.0002853,70.0009,77.7543,268.5597,91.5235,0.00034864,4.068e-05,0.0,0 STARLINK-5545,1 56476U 23064AE  23326.55934273  .00004068  00000-0  34864-3 0  9993,2 56476  70.0009  77.7543 0002853 268.5597  91.5235 14.98312943 30191,6950.246,96.108,574.094,570.128,0.0
56476.0,STARLINK-5545,PAYLOAD,2023-11-22 16:37:41,14.9839055,0.0002992,70.0009,77.418,262.512,97.5699,-0.00089498,-0.00010772,0.0,0 STARLINK-5545,1 56476U 23064AE  23326.69283984 -.00010772  00000-0 -89498-3 0  9998,2 56476  70.0009  77.4180 0002992 262.5120  97.5699 14.98390550 30577,6950.006,96.103,573.95,569.791,0.0
56476.0,STARLINK-5545,PAYLOAD,2023-11-23 11:51:20,14.98335995,0.0002375,70.0019,75.3986,257.291,102.7984,-0.00035882,-4.372e-05,0.0,0 STARLINK-5545,1 56476U 23064AE  23327.49398596 -.00004372  00000-0 -35882-3 0  9990,2 56476  70.0019  75.3986 0002375 257.2910 102.7984 14.98335995 30693,6950.174,96.107,573.69,570.389,0.0
56476.0,STARLINK-5545,PAYLOAD,2023-11-23 13:27:28,14.98320704,0.0002338,70.002,75.2303,243.8703,116.2216,-9.8387e-05,-1.266e-05,0.0,0 STARLINK-5545,1 56476U 23064AE  23327.56074762 -.00001266  00000-0 -98387-4 0  9993,2 56476  70.0020  75.2303 0002338 243.8703 116.2216 14.98320704 30349,6950.222,96.108,573.712,570.462,0.0
56476.0,STARLINK-5545,PAYLOAD,2023-11-23 16:39:44,14.98319698,0.000256,70.0018,74.8933,262.0127,98.0741,-0.00012393,-1.571e-05,0.0,0 STARLINK-5545,1 56476U 23064AE  23327.69427061 -.00001571  00000-0 -12393-3 0  9992,2 56476  70.0018  74.8933 0002560 262.0127  98.0741 14.98319698 30722,6950.225,96.108,573.869,570.31,0.0
56476.0,STARLINK-5545,PAYLOAD,2023-11-24 11:53:21,14.9832629,0.0002811,70.0004,72.8721,264.8667,95.2171,-5.5824e-05,-7.59e-06,0.0,0 STARLINK-5545,1 56476U 23064AE  23328.49538682 -.00000759  00000-0 -55824-4 0  9997,2 56476  70.0004  72.8721 0002811 264.8667  95.2171 14.98326290 30843,6950.204,96.107,574.023,570.116,0.0
56476.0,STARLINK-5545,PAYLOAD,2023-11-24 13:29:29,14.98326627,0.0002505,70.0024,72.7072,234.0391,126.0536,-3.6093e-05,-5.23e-06,0.0,0 STARLINK-5545,1 56476U 23064AE  23328.56214536 -.00000523  00000-0 -36093-4 0  9990,2 56476  70.0024  72.7072 0002505 234.0391 126.0536 14.98326627 30499,6950.203,96.107,573.809,570.327,0.0
56476.0,STARLINK-5545,PAYLOAD,2023-11-24 16:41:45,14.98329325,0.0002658,70.0007,72.3673,265.0056,95.08,-1.4299e-05,-2.64e-06,0.0,0 STARLINK-5545,1 56476U 23064AE  23328.69566417 -.00000264  00000-0 -14299-4 0  9998,2 56476  70.0007  72.3673 0002658 265.0056  95.0800 14.98329325 30514,6950.195,96.107,573.907,570.213,0.0
56476.0,STARLINK-5545,PAYLOAD,2023-11-25 13:31:30,14.98324676,0.0002436,70.0012,70.1782,260.8754,99.213,0.00017515,1.997e-05,0.0,0 STARLINK-5545,1 56476U 23064AE  23329.56354289  .00001997  00000-0  17515-3 0  9992,2 56476  70.0012  70.1782 0002436 260.8754  99.2130 14.98324676 30649,6950.209,96.107,573.767,570.381,0.0
56476.0,STARLINK-5545,PAYLOAD,2023-11-25 16:43:45,14.98334124,0.0002584,70.0014,69.8443,247.2177,112.8709,0.00020349,2.336e-05,0.0,0 STARLINK-5545,1 56476U 23064AE  23329.69705554  .00002336  00000-0  20349-3 0  9998,2 56476  70.0014  69.8443 0002584 247.2177 112.8709 14.98334124 30667,6950.18,96.107,573.841,570.249,0.0
56476.0,STARLINK-5545,PAYLOAD,2023-11-26 13:33:30,14.98338092,0.0002226,70.0025,67.6565,243.2634,116.8298,8.5436e-05,9.27e-06,0.0,0 STARLINK-5545,1 56476U 23064AE  23330.56493084  .00000927  00000-0  85436-4 0  9991,2 56476  70.0025  67.6565 0002226 243.2634 116.8298 14.98338092 30796,6950.168,96.106,573.58,570.486,0.0
56476.0,STARLINK-5545,PAYLOAD,2023-11-26 16:45:45,14.98339944,0.0002107,70.0023,67.3188,255.6368,104.4558,0.00011071,1.229e-05,0.0,0 STARLINK-5545,1 56476U 23064AE  23330.69844887  .00001229  00000-0  11071-3 0  9995,2 56476  70.0023  67.3188 0002107 255.6368 104.4558 14.98339944 31173,6950.162,96.106,573.492,570.563,0.0
56476.0,STARLINK-5545,PAYLOAD,2023-11-27 11:59:25,14.98309764,0.0002552,70.0016,65.2987,261.7025,98.3845,-0.00031536,-3.852e-05,0.0,0 STARLINK-5545,1 56476U 23064AE  23331.49960121 -.00003852  00000-0 -31536-3 0  9998,2 56476  70.0016  65.2987 0002552 261.7025  98.3845 14.98309764 31291,6950.255,96.108,573.894,570.347,0.0
56476.0,STARLINK-5545,PAYLOAD,2023-11-27 13:35:33,14.98314182,0.0003039,69.9999,65.1285,275.0383,85.0429,-0.00027671,-3.392e-05,0.0,0 STARLINK-5545,1 56476U 23064AE  23331.56635833 -.00003392  00000-0 -27671-3 0  9999,2 56476  69.9999  65.1285 0003039 275.0383  85.0429 14.98314182 30946,6950.242,96.108,574.219,569.995,0.0
